ID,Address,Suburb,Price,Type,Date,Rooms,Bathroom,Car,LandSize,Age,Latitude,Longitude,train_station_id,distance_to_train_station,travel_min_to_CBD,over_priced?,crime_A_average,crime_B_average,crime_C_average
ID741063223,1206/483 Swanston St,MELBOURNE,520000.0,u,19/11/2016,2,1.0,1.0,4051.0,14.0,-37.8072,144.9623,19842.0,305.96261921441084,4.7444444444444445,0,46,86,21
ID967477869,3 Arkle St,PRAHRAN,1811000.0,h,22/08/2016,3,2.0,1.0,273.0,129.0,-37.8544,145.0038,19946.0,975.8906803153468,18.214285714285715,0,85,1043,112
ID124765214,5 Charles St,GLEN IRIS,2010000.0,h,10/12/2016,4,2.0,2.0,659.0,89.0,-37.8509,145.0916,19849.0,977.4732868941422,28.666666666666668,0,240,1683,169
ID446130050,53 Moonya Rd,CARNEGIE,1423000.0,h,19/11/2016,4,3.0,4.0,838.0,54.0,-37.8972,145.0617,19919.0,925.1985983648444,25.35483870967742,0,462,3343,509
ID134376330,2 Head St,STRATHMORE,1400000.0,h,26/07/2016,3,1.0,2.0,656.0,19.0,-37.7373,144.9217,20035.0,857.2280800897736,29.0,0,170,1257,169
ID252397250,10 Murphy St,ALTONA NORTH,965000.0,h,15/10/2016,4,1.0,4.0,851.0,59.0,-37.8345,144.8444,19994.0,3565.475465166359,16.310344827586206,0,311,2215,346
ID387835285,70 Barrett St,ALBERT PARK,2575000.0,h,15/10/2016,3,2.0,1.0,228.0,19.0,-37.8445,144.9501,19854.0,3271.2600359250164,3.19205298013245,0,150,1006,111
ID476385015,18B Orchard Rd,BAYSWATER,640000.0,t,1/07/2017,3,2.0,1.0,187.0,9.0,-37.83909,145.26075,19870.0,712.7425920684897,45.083333333333336,0,19,46,8
ID412306491,35A Russell St,SURREY HILLS,1385000.0,h,1/07/2017,3,2.0,1.0,385.0,26.0,-37.82886,145.10093,19895.0,557.7050969143899,25.5,0,316,1022,237
ID822439510,72 Bath Rd,GLEN IRIS,1300000.0,h,19/08/2017,3,1.0,2.0,403.0,59.0,-37.85574,145.09051000000005,19849.0,994.2518884974193,28.666666666666668,0,255,1618,222
ID605315857,57 Cratloe Rd,MOUNT WAVERLEY,1360000.0,h,17/06/2017,3,2.0,2.0,710.0,59.0,-37.8622,145.12563,19848.0,3892.128430405683,30.666666666666668,0,183,1454,194
ID309465141,9 Finton Cl,GLEN WAVERLEY,1214000.0,h,23/09/2017,4,2.0,2.0,694.0,79.0,-37.8893,145.18747,19914.0,6944.764096489221,37.0,0,13,21,8
ID811604963,243 Moreland Rd,COBURG,1370000.0,h,4/03/2017,3,1.0,1.0,233.0,129.0,-37.7549,144.9611,19966.0,78.64596762523487,30.0,0,137,1183,166
ID208879326,1/5 Emmaline St,NORTHCOTE,460000.0,u,22/05/2016,2,1.0,1.0,0.0,10.0,-37.7641,144.9958,20015.0,110.54510993689136,23.3,0,25,60,14
ID323802438,3 Sybil St,HAMPTON EAST,1335000.0,h,26/08/2017,3,1.0,1.0,625.0,62.0,-37.94027,145.03593,19937.0,662.4432015326709,38.266666666666666,0,153,1704,324
ID181371488,79 North Rd,RESERVOIR,900000.0,h,3/09/2017,4,1.0,4.0,646.0,69.0,-37.72328,145.01862,20010.0,1246.7615671471615,34.2,0,126,380,68
ID684732441,4/32 Montgomery St,HEIDELBERG HEIGHTS,720000.0,u,12/08/2017,3,1.0,1.0,146.0,89.0,-37.75132,145.05331,19935.0,911.8608840275975,29.823529411764707,0,153,1704,324
ID441420530,2/8 Hughes St,YARRAVILLE,630000.0,h,8/10/2016,2,1.0,1.0,148.0,16.0,-37.822,144.89,19996.0,684.5756004498251,11.357142857142858,0,100,300,45
ID303747272,33 Bedford St,AIRPORT WEST,860000.0,h,23/09/2017,3,2.0,2.0,593.0,5.0,-37.72057,144.87558,20033.0,4055.5870302350068,34.0,0,151,1120,125
ID618099050,217 Westgarth St,NORTHCOTE,780000.0,h,16/09/2017,2,1.0,1.0,242.0,99.0,-37.78254,145.01013999999995,19929.0,408.8819154933213,19.923076923076923,0,26,68,13
ID430219124,3 Hodgkinson St,CLIFTON HILL,1360000.0,h,27/06/2016,3,1.0,0.0,118.0,139.0,-37.7921,144.9858,19974.0,928.7221482129584,15.142857142857142,0,133,1156,139
ID667122521,50 Davies St,BRUNSWICK,830000.0,h,16/04/2016,2,1.0,1.0,319.0,119.0,-37.7572,144.9686,19966.0,668.6519796756335,30.0,1,119,1063,188
ID401050667,2/20 Wetherby Rd,DONCASTER,492500.0,u,3/09/2016,2,1.0,1.0,65.0,44.0,-37.7887,145.1438,19898.0,3534.6038930658856,30.307692307692307,0,195,1779,147
ID538445778,5 Charlotte St,COLLINGWOOD,1000000.0,h,19/11/2016,2,1.0,2.0,159.0,139.0,-37.7962,144.9887,19975.0,603.6083593997598,13.235294117647058,0,133,1156,139
ID291487501,9/25 Derby St,KEW,557000.0,u,24/09/2016,2,1.0,1.0,0.0,27.0,-37.8034,145.0369,19904.0,2011.5551350743965,15.655172413793103,0,37,154,24
ID661586854,162 Bastings St,NORTHCOTE,2160000.0,h,27/11/2016,3,2.0,1.0,338.0,99.0,-37.7757,145.0119,19929.0,504.28371341213295,19.923076923076923,1,25,60,14
ID462831544,2/16 Westbrook St,CHADSTONE,820000.0,t,20/05/2017,3,2.0,2.0,213.0,7.0,-37.8827,145.0942,19918.0,1989.0901379051286,27.35483870967742,0,199,1246,144
ID419220882,37 Dunstan Ave,BRUNSWICK,905000.0,h,19/08/2017,3,1.0,1.0,277.0,39.0,-37.7592,144.97321000000005,19967.0,1125.5410307637726,27.333333333333332,0,117,1162,191
ID865637689,8 Fairmount Rd,HAWTHORN EAST,1320000.0,h,13/05/2017,2,1.0,3.0,325.0,49.0,-37.8355,145.04399999999995,19903.0,1467.423297784001,17.904761904761905,0,156,1480,132
ID313587620,249 Sussex St,PASCOE VALE,600000.0,h,18/03/2017,3,1.0,3.0,490.0,36.0,-37.7195,144.9513,19963.0,896.0507351741596,36.0,0,92,1027,111
ID196696962,3/37 Brunswick Rd,BRUNSWICK EAST,665000.0,u,16/07/2016,2,1.0,1.0,0.0,79.0,-37.7786,144.9753,19969.0,1513.4853003859062,24.333333333333332,1,100,300,45
ID767240607,11 Banchory St,ESSENDON,2165000.0,h,12/08/2017,4,2.0,3.0,951.0,89.0,-37.74997000000001,144.90752,20037.0,1017.6506163292978,24.0,0,47,371,27
ID373001125,1/70 Truganini Rd,CARNEGIE,795000.0,t,3/09/2016,2,2.0,1.0,133.0,10.0,-37.8911,145.0539,19920.0,679.1098065383617,23.451612903225808,0,462,3343,509
ID859732382,93 Church Rd,DONCASTER,1200000.0,h,19/08/2017,4,2.0,1.0,650.0,24.0,-37.78911,145.13724,19897.0,3538.5687614424373,30.818181818181817,0,208,1866,156
ID150955442,26 Abbotswood Dr,HOPPERS CROSSING,602000.0,h,26/08/2017,4,2.0,2.0,603.0,34.0,-37.84958,144.67154,47648.0,2811.958467819033,32.09090909090909,0,80,223,58
ID971480591,21 Barloa Rd,MONT ALBERT,2200000.0,h,1/07/2017,5,2.0,4.0,819.0,3.0,-37.81269,145.10236,19896.0,800.0421421253754,28.76923076923077,0,49,102,21
ID474026211,1/22 Joffre Rd,PASCOE VALE,736000.0,u,27/05/2017,3,1.0,0.0,278.0,69.0,-37.71798,144.93965,20033.0,1596.5552750523716,34.0,0,92,1027,111
ID917000535,58 Bliburg St,JACANA,421000.0,h,30/07/2016,3,1.0,1.0,607.0,59.0,-37.6864,144.9111,20030.0,837.6039980892809,40.0,0,17,50,12
ID603957388,3/64 Powell St,YARRAVILLE,480500.0,u,27/11/2016,2,1.0,1.0,0.0,49.0,-37.8182,144.8846,19996.0,537.0269718718775,11.357142857142858,0,100,300,45
ID586093311,17 Hamilton St,KEW EAST,3028000.0,h,18/03/2017,5,5.0,4.0,696.0,89.0,-37.7974,145.0491,19931.0,2634.5434875447872,24.0,0,41,142,25
ID135879579,18 Empress Rd,SURREY HILLS,1260000.0,h,13/05/2017,2,1.0,0.0,269.0,109.0,-37.8201,145.0887,19894.0,467.5006412152546,25.76923076923077,0,316,1022,237
ID628088623,8/32 Liddiard St,HAWTHORN,440000.0,u,10/09/2016,2,1.0,1.0,0.0,49.0,-37.8192,145.0385,19904.0,310.68235946784057,15.655172413793103,0,150,1565,276
ID507181587,17 Ramleh Rd,RESERVOIR,692500.0,h,23/04/2016,3,2.0,2.0,803.0,5.0,-37.7086,145.0313,20009.0,1919.9882235172852,35.22222222222222,0,117,378,47
ID787852000,66 Fitzgibbon St,PARKVILLE,1851000.0,h,22/08/2016,2,1.0,1.0,172.0,119.0,-37.7948,144.9571,19970.0,1572.4277470050256,22.333333333333332,0,25,60,14
ID442028401,30 Sherwin St,WHITTLESEA,601000.0,h,29/07/2017,3,2.0,1.0,972.0,23.0,-37.51232,145.13282,52161.0,10431.783680145345,57.333333333333336,0,28,70,14
ID141667160,176 Albert St,BRUNSWICK,911000.0,h,16/09/2017,2,1.0,1.0,132.0,114.0,-37.7697,144.96866,19968.0,828.2672021135344,25.333333333333332,1,117,1162,191
ID113424321,10 Hazeldine Rd,GLEN IRIS,2538000.0,h,6/08/2016,4,2.0,3.0,630.0,19.0,-37.856,145.0691,19849.0,1117.9671242173104,28.666666666666668,1,240,1683,169
ID887937912,22 Champion St,BRIGHTON,2375000.0,h,17/09/2016,3,2.0,2.0,547.0,19.0,-37.9271,145.0034,19949.0,1222.5687110574345,31.5,1,343,1929,260
ID394867954,52a William St,ABBOTSFORD,1100000.0,h,18/06/2016,2,2.0,1.0,124.0,6.0,-37.8079,144.9977,19976.0,511.6437199143321,12.235294117647058,0,150,1006,111
ID568119236,19 Plymouth Cl,SUNSHINE NORTH,600000.0,h,6/05/2017,3,1.0,2.0,465.0,89.0,-37.7549,144.8304,20003.0,1855.8488740808737,29.375,0,176,1272,233
ID777769936,111 Loongana Av,GLENROY,770000.0,h,12/08/2017,3,1.0,2.0,604.0,59.0,-37.70855,144.90441,20032.0,1213.4469482190075,36.0,0,230,1620,177
ID353479397,185 Doncaster Rd,BALWYN NORTH,1702000.0,h,10/12/2016,4,2.0,2.0,715.0,80.0,-37.7943,145.083,19893.0,3363.753883583056,23.76923076923077,0,120,881,102
ID842291623,58 Wolverhampton St,FOOTSCRAY,977000.0,h,3/12/2016,4,2.0,1.0,154.0,12.0,-37.7983,144.8911,20024.0,469.1972632073885,17.4,0,240,1683,169
ID714114523,2b York Rd,GLEN IRIS,1650000.0,h,22/05/2016,5,2.0,2.0,400.0,59.0,-37.8572,145.0555,19849.0,2286.0927148028354,28.666666666666668,0,240,1683,169
ID359262909,11/201 Wellington Pde S,EAST MELBOURNE,630000.0,u,25/02/2017,1,1.0,1.0,0.0,49.0,-37.8168,144.9787,19979.0,475.6900549431829,7.076923076923077,0,20,47,11
ID990394922,9 Swan St,FOOTSCRAY,831000.0,h,20/05/2017,3,1.0,0.0,210.0,119.0,-37.7947,144.8871,20023.0,806.5789989847289,19.4,0,255,1618,222
ID272163350,12 Kookaburra St,ALTONA,1165000.0,h,29/04/2017,3,1.0,2.0,700.0,10.0,-37.8707,144.8076,19925.0,805.0248127430892,28.5,0,311,2261,423
ID867520680,21 Penn Ct,FAWKNER,750000.0,h,18/06/2016,4,2.0,1.0,613.0,49.0,-37.7034,144.9666,19961.0,744.8502662550071,39.0,0,143,1283,102
ID717705978,1/23 Bena St,YARRAVILLE,1142000.0,h,12/08/2017,4,3.0,2.0,234.0,7.0,-37.81961,144.88132,19996.0,865.3849562716337,11.357142857142858,0,111,355,60
ID859533609,10 Gresford St,SUNSHINE NORTH,701000.0,h,4/03/2017,3,2.0,0.0,630.0,79.0,-37.7692,144.8348,20004.0,1294.056780347898,26.375,0,176,1272,233
ID541453120,4/63 Carlisle St,ST KILDA,533000.0,u,22/07/2017,2,1.0,1.0,463.0,59.0,-37.86761,144.98337,19956.0,915.4307610533104,17.5,0,176,1272,233
ID468983643,2/22 Volga St,HADFIELD,468000.0,t,26/07/2016,2,1.0,1.0,137.0,7.0,-37.707,144.9413,19961.0,1700.2855314061694,39.0,0,210,1676,169
ID284621455,55 Emo Rd,MALVERN EAST,2210000.0,h,8/10/2016,3,1.0,2.0,789.0,25.0,-37.8747,145.05200000000005,22248.0,887.4191128798564,19.5,0,87,348,76
